{"type":"Topology","objects":{"collection":{"type":"GeometryCollection","geometries":[{"type":"Point","properties":{"Organization":"Berkshire Housing Development","URL":"http://www.berkshirehousing.com/","Street":"74 North Street","City":"Pittsfield","State":"MA","ZIP":"01201","Phone":"413‐499‐1630","Phone Extension":"","Type":"Housing"},"coordinates":[0,7723]},{"type":"Point","properties":{"Organization":"Community Teamwork, Inc","URL":"http://www.commteam.org/","Street":"155 Merrimack Street","City":"Lowell","State":"MA","ZIP":"01852","Phone":"978‐459‐0551","Phone Extension":"","Type":"Housing"},"coordinates":[6614,9618]},{"type":"Point","properties":{"Organization":"Franklin County Regional Housing & Redevelopment Authority","URL":"http://www.fchra.org/","Street":"42 Canal Road","City":"Turner Falls","State":"MA","ZIP":"01376","Phone":"413‐863‐9781","Phone Extension":"","Type":"Housing"},"coordinates":[2360,9260]},{"type":"Point","properties":{"Organization":"Housing Assistance Corp. - Cape Cod","URL":"http://www.haconcapecod.org/","Street":"460 West Main Street","City":"Hyannis","State":"MA","ZIP":"02601","Phone":"508‐771‐5400","Phone Extension":"","Type":"Housing"},"coordinates":[9999,0]},{"type":"Point","properties":{"Organization":"HAP, Inc.","URL":"http://www.haphousing.org/default/","Street":"322 Main Street","City":"Springfield","State":"MA","ZIP":"01105","Phone":"413‐233‐1500","Phone Extension":"","Type":"Housing"},"coordinates":[2290,4255]},{"type":"Point","properties":{"Organization":"Metropolitan Boston Housing Partnership","URL":"http://www.mbhp.org/","Street":"125 Lincoln Street","City":"Boston","State":"MA","ZIP":"02111","Phone":"617‐859‐0400","Phone Extension":"","Type":"Housing"},"coordinates":[7463,6773]},{"type":"Point","properties":{"Organization":"RCAP (Resources for Communities and People) Solutions","URL":"http://www.rcapsolutions.org/","Street":"12 East Worcester Street","City":"Worcester","State":"MA","ZIP":"01604","Phone":"800-488-1969","Phone Extension":"","Type":"Housing"},"coordinates":[4975,5918]},{"type":"Point","properties":{"Organization":"South Middlesex Opportunity Council (SMOC)","URL":"http://www.smoc.org/","Street":"7 Bishop Street","City":"Framingham","State":"MA","ZIP":"01702","Phone":"508‐879‐6691","Phone Extension":"","Type":"Housing"},"coordinates":[6272,6075]},{"type":"Point","properties":{"Organization":"South Shore Housing","URL":"http://www.southshorehousing.org/","Street":"169 Summer Street","City":"Kingston","State":"MA","ZIP":"02364","Phone":"781‐542‐4200","Phone Extension":"","Type":"Housing"},"coordinates":[8577,3455]},{"type":"Point","properties":{"Organization":"The Community Housing Program - IHR (Institute for Health and Recovery)","URL":"http://www.healthrecovery.org/projects/community-housing/","Street":"349 Broadway","City":"Cambridge","State":"MA","ZIP":"02139","Phone":"617‐661‐3991","Phone Extension":"x109","Type":"Housing"},"coordinates":[7312,6956]},{"type":"Point","properties":{"Organization":"Statewide Access to Substance Abuse Treatment Shelters for Homeless Families - IHR","URL":"http://www.healthrecovery.org/projects/frt/","Street":"349 Broadway","City":"Cambridge","State":"MA","ZIP":"02139","Phone":"617‐661‐3991","Phone Extension":"x107","Type":"Housing"},"coordinates":[7312,6956]},{"type":"Point","properties":{"Organization":"BSAS Helpline Health Resources in Action","URL":"http://helpline-online.com/","Street":"95 Berkley Street","City":"Boston","State":"MA","ZIP":"02116","Phone":"1‐800‐327‐5050","Phone Extension":"","Type":"Housing"},"coordinates":[7422,6733]},{"type":"Point","properties":{"Organization":"HomeStart, Inc.","URL":"http://homestart.org/","Street":"105 Chauncy Street","City":"Boston","State":"MA","ZIP":"02111","Phone":"617‐542‐0338","Phone Extension":"x43","Type":"Housing"},"coordinates":[7454,6790]},{"type":"Point","properties":{"Organization":"Massachusetts Department of Housing and Community Development","URL":"http://www.mass.gov/hed/economic/eohed/dhcd/","Street":"100 Cambridge Street","City":"Boston","State":"MA","ZIP":"02114","Phone":"617‐727‐8380","Phone Extension":"","Type":"Housing"},"coordinates":[7451,6866]},{"type":"Point","properties":{"Organization":"Cambridge/Somerville Office","URL":"https://www.gbls.org/our-work/cambridge-somerville-legal-services","Street":"60 Gore Street","City":"Cambridge","State":"MA","ZIP":"02141","Phone":"617-603-2700","Phone Extension":"","Type":"Career and education"},"coordinates":[7389,6970]},{"type":"Point","properties":{"Organization":"Community Legal Aid, Inc. (CLA)","URL":"http://www.communitylegal.org/","Street":"405 Main Street","City":"Worcester","State":"MA","ZIP":"01608","Phone":"508-752-3718","Phone Extension":"","Type":"Career and education"},"coordinates":[4936,5928]},{"type":"Point","properties":{"Organization":"Massachusetts Law Reform Institute","URL":"http://www.mlri.org/","Street":"99 Chauncy Street","City":"Boston","State":"MA","ZIP":"02111","Phone":"617-357-0700","Phone Extension":"","Type":"Career and education"},"coordinates":[7455,6790]},{"type":"Point","properties":{"Organization":"Greater Boson Legal Services GBLS Main Office","URL":"https://www.gbls.org/","Street":"197 Friend Street","City":"Boston","State":"MA","ZIP":"02114","Phone":"617-371-1234","Phone Extension":"","Type":"Career and education"},"coordinates":[7457,6898]},{"type":"Point","properties":{"Organization":"The Transformation Center","URL":"http://transformation-center.org/","Street":"98 Magazine Street","City":"Roxbury","State":"MA","ZIP":"02119","Phone":"877‐769‐7693","Phone Extension":"","Type":"Career and education"},"coordinates":[7422,6541]},{"type":"Point","properties":{"Organization":"Metro Boston Recovery Learning Community (RLC)","URL":"http://www.metrobostonrlc.org/","Street":"85 East Newton Street","City":"Boston","State":"MA","ZIP":"02118","Phone":"617‐305‐9976","Phone Extension":"","Type":"Career and education"},"coordinates":[7422,6626]},{"type":"Point","properties":{"Organization":"Central Mass Recovery Learning Community (RLC)","URL":"http://www.centralmassrlc.org/","Street":"91 Stafford Street","City":"Worcester","State":"MA","ZIP":"01603","Phone":"508‐751‐9600","Phone Extension":"","Type":"Career and education"},"coordinates":[4801,5704]},{"type":"Point","properties":{"Organization":"Metro‐Suburban Regional Learning Center (RLC)","URL":"http://www.metrosubrlc.org/","Street":"460 Quincy Avenue","City":"Quincy","State":"MA","ZIP":"02169","Phone":"888‐752‐5510","Phone Extension":"","Type":"Career and education"},"coordinates":[7729,5684]},{"type":"Point","properties":{"Organization":"Northeast Recovery Learning Community (RLC)","URL":"http://www.nilp.org/nerlc/","Street":"20 Ballard Road","City":"Lawrence","State":"MA","ZIP":"01843","Phone":"800‐845‐6457","Phone Extension":"","Type":"Career and education"},"coordinates":[7029,9999]},{"type":"Point","properties":{"Organization":"Southeastern Recovery Learning Community (RLC)","URL":"http://www.southeastrlc.org/","Street":"71 Main Street","City":"Taunton","State":"MA","ZIP":"02780","Phone":"508‐880‐8527","Phone Extension":"","Type":"Career and education"},"coordinates":[7354,2427]},{"type":"Point","properties":{"Organization":"Western Mass (RLC) Recovery Learning Community","URL":"http://www.westernmassrlc.org/","Street":"187 High Street","City":"Holyoke","State":"MA","ZIP":"01040","Phone":"866‐641‐2853","Phone Extension":"","Type":"Career and education"},"coordinates":[2198,5387]}]}},"arcs":[],"transform":{"scale":[0.0002941114411441129,0.00010349580958095837],"translate":[-73.25353430000001,41.6503587]},"bbox":[-73.25353430000001,41.6503587,-70.31271400000003,42.6852133]}